IRIDIUM 63              
1 25286U 98021B   25199.38500855  .00000262  00000+0  82539-4 0  9993
2 25286  86.3950  69.0409 0002157  91.4910 268.6534 14.36562980428599
IRIDIUM 69              
1 25319U 98026A   25199.37135619  .00000320  00000+0  93369-4 0  9994
2 25319  86.3951  82.2443 0000642 348.0835  12.0349 14.40990991427794
IRIDIUM 71              
1 25320U 98026B   25199.16582574  .00000283  00000+0  81438-4 0  9991
2 25320  86.3946  77.0157 0002695  36.0525 324.0856 14.41177196428306
IRIDIUM 73              
1 25344U 98032C   25198.52792930  .00000366  00000+0  86117-4 0  9993
2 25344  86.4395  33.9245 0001616  96.7558 263.3832 14.51738677435261
IRIDIUM 82              
1 25467U 98051A   25199.49381426  .00017288  00000+0  47812-3 0  9990
2 25467  86.3652  94.3311 0083257 175.3377 184.8670 15.33363877428751
